NORAD_CAT_ID,OBJECT_NAME,OBJECT_TYPE,EPOCH,MEAN_MOTION,ECCENTRICITY,INCLINATION,RA_OF_ASC_NODE,ARG_OF_PERICENTER,MEAN_ANOMALY,BSTAR,MEAN_MOTION_DOT,MEAN_MOTION_DDOT,TLE_LINE0,TLE_LINE1,TLE_LINE2,SEMIMAJOR_AXIS,PERIOD,APOGEE,PERIGEE,DECAYED
52701.0,STARLINK-4003,PAYLOAD,2023-04-28 08:34:50,15.08860293,0.0001199,53.2129,151.2853,72.7945,287.3178,0.00021034,3.063e-05,0.0,0 STARLINK-4003,1 52701U 22053AX  23118.35753437  .00003063  00000-0  21034-3 0  9994,2 52701  53.2129 151.2853 0001199  72.7945 287.3178 15.08860293 53352,6917.818,95.436,540.513,538.854,0.0
52701.0,STARLINK-4003,PAYLOAD,2023-04-28 19:42:32,15.08852588,0.0001125,53.2128,149.2053,69.051,291.0603,6.2355e-05,7.05e-06,0.0,0 STARLINK-4003,1 52701U 22053AX  23118.82121318  .00000705  00000-0  62355-4 0  9995,2 52701  53.2128 149.2053 0001125  69.0510 291.0603 15.08852588 52998,6917.842,95.437,540.485,538.929,0.0
52701.0,STARLINK-4003,PAYLOAD,2023-04-29 08:25:38,15.08844847,0.0001189,53.214,146.8258,96.6965,263.4163,-0.00011751,-2.158e-05,0.0,0 STARLINK-4003,1 52701U 22053AX  23119.35113513 -.00002158  00000-0 -11751-3 0  9991,2 52701  53.2140 146.8258 0001189  96.6965 263.4163 15.08844847 53075,6917.866,95.437,540.553,538.908,0.0
52701.0,STARLINK-4003,PAYLOAD,2023-04-30 08:16:25,15.08841569,0.0001264,53.2151,142.3664,81.831,278.2825,3.4246e-05,2.57e-06,0.0,0 STARLINK-4003,1 52701U 22053AX  23120.34473616  .00000257  00000-0  34246-4 0  9996,2 52701  53.2151 142.3664 0001264  81.8310 278.2825 15.08841569 53654,6917.876,95.437,540.615,538.866,0.0
52701.0,STARLINK-4003,PAYLOAD,2023-05-01 04:56:26,15.08835328,0.0001216,53.2151,138.4986,91.4504,268.6627,5.5181e-05,5.9e-06,0.0,0 STARLINK-4003,1 52701U 22053AX  23121.20586060  .00000590  00000-0  55181-4 0  9991,2 52701  53.2151 138.4986 0001216  91.4504 268.6627 15.08835328 53352,6917.895,95.438,540.601,538.918,0.0
52701.0,STARLINK-4003,PAYLOAD,2023-05-01 08:07:12,15.08835307,0.0001265,53.2157,137.905,94.7712,265.3424,5.2087e-05,5.41e-06,0.0,0 STARLINK-4003,1 52701U 22053AX  23121.33834083  .00000541  00000-0  52087-4 0  9994,2 52701  53.2157 137.9050 0001265  94.7712 265.3424 15.08835307 53801,6917.895,95.438,540.635,538.885,0.0
52701.0,STARLINK-4003,PAYLOAD,2023-05-02 09:33:22,15.08841124,0.000121,53.2154,133.1468,87.9081,272.2049,9.4017e-05,1.209e-05,0.0,0 STARLINK-4003,1 52701U 22053AX  23122.39817822  .00001209  00000-0  94017-4 0  9994,2 52701  53.2154 133.1468 0001210  87.9081 272.2049 15.08841124 53536,6917.877,95.437,540.579,538.905,0.0
52701.0,STARLINK-4003,PAYLOAD,2023-05-02 17:30:18,15.08838167,0.0001197,53.2153,131.6594,91.533,268.5799,8.8722e-05,1.124e-05,0.0,0 STARLINK-4003,1 52701U 22053AX  23122.72938048  .00001124  00000-0  88722-4 0  9997,2 52701  53.2153 131.6594 0001197  91.5330 268.5799 15.08838167 54017,6917.886,95.438,540.579,538.923,0.0
52701.0,STARLINK-4003,PAYLOAD,2023-05-03 09:24:09,15.08839129,0.0001172,53.2151,128.6856,87.5334,272.5792,7.5567e-05,9.15e-06,0.0,0 STARLINK-4003,1 52701U 22053AX  23123.39178162  .00000915  00000-0  75567-4 0  9994,2 52701  53.2151 128.6856 0001172  87.5334 272.5792 15.08839129 53683,6917.883,95.438,540.559,538.937,0.0
52701.0,STARLINK-4003,PAYLOAD,2023-05-04 01:18:03,15.08816031,0.0001191,53.2153,125.712,87.2212,272.8916,-0.00013803,-2.482e-05,0.0,0 STARLINK-4003,1 52701U 22053AX  23124.05420930 -.00002482  00000-0 -13803-3 0  9998,2 52701  53.2153 125.7120 0001191  87.2212 272.8916 15.08816031 53789,6917.954,95.439,540.643,538.995,0.0
52701.0,STARLINK-4003,PAYLOAD,2023-05-04 06:04:14,15.0879545,0.0001244,53.2152,124.8199,83.6575,276.4559,-0.00030634,-5.154e-05,0.0,0 STARLINK-4003,1 52701U 22053AX  23124.25295028 -.00005154  00000-0 -30634-3 0  9998,2 52701  53.2152 124.8199 0001244  83.6575 276.4559 15.08795450 53813,6918.017,95.44,540.742,539.021,0.0
52701.0,STARLINK-4003,PAYLOAD,2023-05-04 12:25:48,15.08794085,0.0001203,53.2153,123.6305,91.9518,268.1611,-0.00029848,-5.029e-05,0.0,0 STARLINK-4003,1 52701U 22053AX  23124.51791819 -.00005029  00000-0 -29848-3 0  9992,2 52701  53.2153 123.6305 0001203  91.9518 268.1611 15.08794085 54286,6918.021,95.44,540.718,539.053,0.0
52701.0,STARLINK-4003,PAYLOAD,2023-05-05 05:54:59,15.08840508,0.0001506,53.2153,120.3588,87.0785,273.038,0.00014565,2.031e-05,0.0,0 STARLINK-4003,1 52701U 22053AX  23125.24652294  .00002031  00000-0  14565-3 0  9994,2 52701  53.2153 120.3588 0001506  87.0785 273.0380 15.08840508 53965,6917.879,95.438,540.786,538.702,0.0
52701.0,STARLINK-4003,PAYLOAD,2023-05-05 17:02:41,15.08849732,0.0001632,53.2158,118.2775,83.1295,276.9882,0.00019057,2.747e-05,0.0,0 STARLINK-4003,1 52701U 22053AX  23125.71019715  .00002747  00000-0  19057-3 0  9996,2 52701  53.2158 118.2775 0001632  83.1295 276.9882 15.08849732 54033,6917.851,95.437,540.845,538.587,0.0
52701.0,STARLINK-4003,PAYLOAD,2023-05-06 05:45:46,15.08840656,0.0001687,53.216,115.898,85.9271,274.1914,0.00061223,9.469e-05,0.0,0 STARLINK-4003,1 52701U 22053AX  23126.24011938  .00009469  00000-0  61223-3 0  9994,2 52701  53.2160 115.8980 0001687  85.9271 274.1914 15.08840656 54112,6917.878,95.438,540.91,538.576,0.0
52701.0,STARLINK-4003,PAYLOAD,2023-05-06 08:56:32,15.08844858,0.0001713,53.2159,115.3032,85.7233,274.3954,0.00063302,9.802e-05,0.0,0 STARLINK-4003,1 52701U 22053AX  23126.37259812  .00009802  00000-0  63302-3 0  9994,2 52701  53.2159 115.3032 0001713  85.7233 274.3954 15.08844858 54562,6917.866,95.437,540.916,538.546,0.0
52701.0,STARLINK-4003,PAYLOAD,2023-05-07 05:36:32,15.08870681,0.0001865,53.2144,111.4366,89.7461,270.3745,0.00018803,2.708e-05,0.0,0 STARLINK-4003,1 52701U 22053AX  23127.23370484  .00002708  00000-0  18803-3 0  9993,2 52701  53.2144 111.4366 0001865  89.7461 270.3745 15.08870681 54262,6917.787,95.436,540.942,538.361,0.0
52701.0,STARLINK-4003,PAYLOAD,2023-05-08 03:51:56,15.08852665,0.0001797,53.2161,107.2738,102.5328,257.5865,-9.8898e-05,-1.862e-05,0.0,0 STARLINK-4003,1 52701U 22053AX  23128.16106911 -.00001862  00000-0 -98898-4 0  9993,2 52701  53.2161 107.2738 0001797 102.5328 257.5865 15.08852665 54405,6917.842,95.437,540.95,538.464,0.0
52701.0,STARLINK-4003,PAYLOAD,2023-05-08 14:59:38,15.08835985,0.0001564,53.2159,105.1939,84.9155,275.2016,5.0867e-05,5.22e-06,0.0,0 STARLINK-4003,1 52701U 22053AX  23128.62475451  .00000522  00000-0  50867-4 0  9996,2 52701  53.2159 105.1939 0001564  84.9155 275.2016 15.08835985 54901,6917.893,95.438,540.84,538.676,0.0
52701.0,STARLINK-4003,PAYLOAD,2023-05-09 10:04:15,15.08851453,0.0001635,53.2168,101.6256,91.2323,268.8857,-1.0469e-05,-4.55e-06,0.0,0 STARLINK-4003,1 52701U 22053AX  23129.41962144 -.00000455  00000-0 -10469-4 0  9995,2 52701  53.2168 101.6256 0001635  91.2323 268.8857 15.08851453 55024,6917.845,95.437,540.841,538.579,0.0
52701.0,STARLINK-4003,PAYLOAD,2023-05-10 06:44:16,15.08841755,0.0001551,53.2168,97.7602,96.2356,263.8813,0.00012294,1.669e-05,0.0,0 STARLINK-4003,1 52701U 22053AX  23130.28074659  .00001669  00000-0  12294-3 0  9990,2 52701  53.2168  97.7602 0001551  96.2356 263.8813 15.08841755 55157,6917.875,95.437,540.813,538.667,0.0
52701.0,STARLINK-4003,PAYLOAD,2023-05-11 01:48:54,15.08838003,0.0001646,53.2172,94.1924,100.0524,260.0654,5.9212e-05,6.54e-06,0.0,0 STARLINK-4003,1 52701U 22053AX  23131.07563238  .00000654  00000-0  59212-4 0  9999,2 52701  53.2172  94.1924 0001646 100.0524 260.0654 15.08838003 54845,6917.886,95.438,540.89,538.613,0.0
52701.0,STARLINK-4003,PAYLOAD,2023-05-11 04:59:40,15.08841758,0.0001585,53.2175,93.5975,96.2596,263.8577,5.3254e-05,5.6e-06,0.0,0 STARLINK-4003,1 52701U 22053AX  23131.20811058  .00000560  00000-0  53254-4 0  9996,2 52701  53.2175  93.5975 0001585  96.2596 263.8577 15.08841758 55290,6917.875,95.437,540.836,538.644,0.0
52701.0,STARLINK-4003,PAYLOAD,2023-05-12 03:15:04,15.08838818,0.0001565,53.2174,89.4322,88.3421,271.7751,5.7254e-05,6.23e-06,0.0,0 STARLINK-4003,1 52701U 22053AX  23132.13547375  .00000623  00000-0  57254-4 0  9991,2 52701  53.2174  89.4322 0001565  88.3421 271.7751 15.08838818 55000,6917.884,95.438,540.832,538.666,0.0
52701.0,STARLINK-4003,PAYLOAD,2023-05-12 04:50:28,15.08837359,0.0001533,53.2176,89.1342,86.6576,273.4592,5.3034e-05,5.56e-06,0.0,0 STARLINK-4003,1 52701U 22053AX  23132.20171560  .00000556  00000-0  53034-4 0  9995,2 52701  53.2176  89.1342 0001533  86.6576 273.4592 15.08837359 55447,6917.888,95.438,540.814,538.693,0.0
52701.0,STARLINK-4003,PAYLOAD,2023-05-13 03:05:51,15.08851999,0.0001336,53.2176,84.9708,96.0619,264.0525,4.1918e-05,3.79e-06,0.0,0 STARLINK-4003,1 52701U 22053AX  23133.12906701  .00000379  00000-0  41918-4 0  9991,2 52701  53.2176  84.9708 0001336  96.0619 264.0525 15.08851999 55156,6917.844,95.437,540.633,538.784,0.0
52701.0,STARLINK-4003,PAYLOAD,2023-05-14 02:56:39,15.08838859,0.0001087,53.2177,80.5115,94.3456,265.766,7.3569e-05,8.83e-06,0.0,0 STARLINK-4003,1 52701U 22053AX  23134.12267425  .00000883  00000-0  73569-4 0  9992,2 52701  53.2177  80.5115 0001087  94.3456 265.7660 15.08838859 55309,6917.884,95.438,540.501,538.997,0.0
52701.0,STARLINK-4003,PAYLOAD,2023-05-14 20:25:53,15.08842311,0.0001242,53.2173,77.2406,95.0514,265.062,-4.0164e-06,-3.52e-06,0.0,0 STARLINK-4003,1 52701U 22053AX  23134.85131508 -.00000352  00000-0 -40164-5 0  9993,2 52701  53.2173  77.2406 0001242  95.0514 265.0620 15.08842311 55843,6917.873,95.437,540.598,538.879,0.0
52701.0,STARLINK-4003,PAYLOAD,2023-05-15 02:47:25,15.0884684,0.0001273,53.2175,76.0518,94.9668,265.147,3.4875e-05,2.67e-06,0.0,0 STARLINK-4003,1 52701U 22053AX  23135.11627057  .00000267  00000-0  34875-4 0  9996,2 52701  53.2175  76.0518 0001273  94.9668 265.1470 15.08846840 55887,6917.859,95.437,540.605,538.844,0.0
52701.0,STARLINK-4003,PAYLOAD,2023-05-16 02:38:13,15.08824309,0.0001353,53.2183,71.5925,102.9097,257.2047,0.00022422,3.281e-05,0.0,0 STARLINK-4003,1 52701U 22053AX  23136.10987849  .00003281  00000-0  22422-3 0  9997,2 52701  53.2183  71.5925 0001353 102.9097 257.2047 15.08824309 55601,6917.928,95.439,540.729,538.857,0.0
